LYNK TOWER 4            
1 55034U 23001AB  26068.67743801  .00009160  00000+0  30014-3 0  9997
2 55034  97.3324 128.5940 0010321 112.3386 247.8950 15.31819885176588
STARLINK-30934          
1 58395U 23178X   26068.13385654 -.00001159  00000+0 -27036-4 0  9997
2 58395  53.1615   3.9148 0001000 102.8812 257.2300 15.30187998129733
